{"type": "FeatureCollection", "features": [{"type": "Feature", "properties": {"norad_id": 24876, "name": "GPS BIIR-2  (PRN 13)", "group": "gps-ops", "lat": -23.70199326107878, "lon": 88.70840038714634, "alt_km": 20164.95978555824, "timestamp": "2025-12-09T04:51:47.751845+00:00", "meta": {"OBJECT_NAME": "GPS BIIR-2  (PRN 13)", "OBJECT_ID": "1997-035A", "EPOCH": "2025-12-08T05:53:26.454912", "MEAN_MOTION": 2.00563507, "ECCENTRICITY": 0.00967273, "INCLINATION": 55.8931, "RA_OF_ASC_NODE": 106.0447, "ARG_OF_PERICENTER": 57.0161, "MEAN_ANOMALY": 303.881, "EPHEMERIS_TYPE": 0, "CLASSIFICATION_TYPE": "U", "NORAD_CAT_ID": 24876, "ELEMENT_SET_NO": 999, "REV_AT_EPOCH": 20812, "BSTAR": 0, "MEAN_MOTION_DOT": 1.5e-07, "MEAN_MOTION_DDOT": 0}, "tle": {"line1": "1 24876U 97035A   25342.24544508  .00000015  00000+0  00000+0 0  9993", "line2": "2 24876  55.8931 106.0447 0096727  57.0161 303.8810  2.00563507208127"}}, "geometry": {"type": "Point", "coordinates": [88.70840038714634, -23.70199326107878]}}, {"type": "Feature", "properties": {"norad_id": 26360, "name": "GPS BIIR-4  (PRN 20)", "group": "gps-ops", "lat": 47.37615523562247, "lon": 76.43343232511621, "alt_km": 20279.45291437402, "timestamp": "2025-12-09T04:51:47.751870+00:00", "meta": {"OBJECT_NAME": "GPS BIIR-4  (PRN 20)", "OBJECT_ID": "2000-025A", "EPOCH": "2025-12-08T05:53:38.603616", "MEAN_MOTION": 2.00567966, "ECCENTRICITY": 0.00388423, "INCLINATION": 55.0425, "RA_OF_ASC_NODE": 27.0197, "ARG_OF_PERICENTER": 241.5588, "MEAN_ANOMALY": 211.3182, "EPHEMERIS_TYPE": 0, "CLASSIFICATION_TYPE": "U", "NORAD_CAT_ID": 26360, "ELEMENT_SET_NO": 999, "REV_AT_EPOCH": 18744, "BSTAR": 0, "MEAN_MOTION_DOT": -8.7e-07, "MEAN_MOTION_DDOT": 0}, "tle": {"line1": "1 26360U 00025A   25342.24558569 -.00000087  00000+0  00000+0 0  9998", "line2": "2 26360  55.0425  27.0197 0038842 241.5588 211.3182  2.00567966187447"}}, "geometry": {"type": "Point", "coordinates": [76.43343232511621, 47.37615523562247]}}, {"type": "Feature", "properties": {"norad_id": 26407, "name": "GPS BIIR-5  (PRN 22)", "group": "gps-ops", "lat": -54.21321074182182, "lon": 119.92929065724121, "alt_km": 19926.62564335663, "timestamp": "2025-12-09T04:51:47.751886+00:00", "meta": {"OBJECT_NAME": "GPS BIIR-5  (PRN 22)", "OBJECT_ID": "2000-040A", "EPOCH": "2025-12-08T20:20:05.544960", "MEAN_MOTION": 2.00567841, "ECCENTRICITY": 0.0126224, "INCLINATION": 54.8917, "RA_OF_ASC_NODE": 222.7238, "ARG_OF_PERICENTER": 301.7361, "MEAN_ANOMALY": 65.1974, "EPHEMERIS_TYPE": 0, "CLASSIFICATION_TYPE": "U", "NORAD_CAT_ID": 26407, "ELEMENT_SET_NO": 999, "REV_AT_EPOCH": 18613, "BSTAR": 0, "MEAN_MOTION_DOT": 1e-07, "MEAN_MOTION_DDOT": 0}, "tle": {"line1": "1 26407U 00040A   25342.84728640  .00000010  00000+0  00000+0 0  9997", "line2": "2 26407  54.8917 222.7238 0126224 301.7361  65.1974  2.00567841186133"}}, "geometry": {"type": "Point", "coordinates": [119.92929065724121, -54.21321074182182]}}, {"type": "Feature", "properties": {"norad_id": 27663, "name": "GPS BIIR-8  (PRN 16)", "group": "gps-ops", "lat": 30.940766412986996, "lon": -112.58032942288686, "alt_km": 19795.64226864517, "timestamp": "2025-12-09T04:51:47.751900+00:00", "meta": {"OBJECT_NAME": "GPS BIIR-8  (PRN 16)", "OBJECT_ID": "2003-005A", "EPOCH": "2025-12-08T15:56:33.296928", "MEAN_MOTION": 2.00571063, "ECCENTRICITY": 0.0147293, "INCLINATION": 54.9243, "RA_OF_ASC_NODE": 222.5404, "ARG_OF_PERICENTER": 51.7448, "MEAN_ANOMALY": 318.8801, "EPHEMERIS_TYPE": 0, "CLASSIFICATION_TYPE": "U", "NORAD_CAT_ID": 27663, "ELEMENT_SET_NO": 999, "REV_AT_EPOCH": 16749, "BSTAR": 0, "MEAN_MOTION_DOT": 1.2e-07, "MEAN_MOTION_DDOT": 0}, "tle": {"line1": "1 27663U 03005A   25342.66427427  .00000012  00000+0  00000+0 0  9997", "line2": "2 27663  54.9243 222.5404 0147293  51.7448 318.8801  2.00571063167497"}}, "geometry": {"type": "Point", "coordinates": [-112.58032942288686, 30.940766412986996]}}, {"type": "Feature", "properties": {"norad_id": 28190, "name": "GPS BIIR-11 (PRN 19)", "group": "gps-ops", "lat": -15.402783377292785, "lon": 114.46608218133427, "alt_km": 19937.97182026976, "timestamp": "2025-12-09T04:51:47.751913+00:00", "meta": {"OBJECT_NAME": "GPS BIIR-11 (PRN 19)", "OBJECT_ID": "2004-009A", "EPOCH": "2025-12-08T00:54:44.996256", "MEAN_MOTION": 2.00560848, "ECCENTRICITY": 0.01082887, "INCLINATION": 54.99, "RA_OF_ASC_NODE": 283.4084, "ARG_OF_PERICENTER": 167.5613, "MEAN_ANOMALY": 269.7716, "EPHEMERIS_TYPE": 0, "CLASSIFICATION_TYPE": "U", "NORAD_CAT_ID": 28190, "ELEMENT_SET_NO": 999, "REV_AT_EPOCH": 15911, "BSTAR": 0, "MEAN_MOTION_DOT": -4.5e-07, "MEAN_MOTION_DDOT": 0}, "tle": {"line1": "1 28190U 04009A   25342.03802079 -.00000045  00000+0  00000+0 0  9996", "line2": "2 28190  54.9900 283.4084 0108288 167.5613 269.7716  2.00560848159112"}}, "geometry": {"type": "Point", "coordinates": [114.46608218133427, -15.402783377292785]}}, {"type": "Feature", "properties": {"norad_id": 28474, "name": "GPS BIIR-13 (PRN 02)", "group": "gps-ops", "lat": -53.08368833147566, "lon": -139.92868358885448, "alt_km": 19904.88477851769, "timestamp": "2025-12-09T04:51:47.751925+00:00", "meta": {"OBJECT_NAME": "GPS BIIR-13 (PRN 02)", "OBJECT_ID": "2004-045A", "EPOCH": "2025-12-08T12:02:32.207424", "MEAN_MOTION": 2.00569196, "ECCENTRICITY": 0.01706814, "INCLINATION": 55.2428, "RA_OF_ASC_NODE": 332.5762, "ARG_OF_PERICENTER": 309.0669, "MEAN_ANOMALY": 163.0919, "EPHEMERIS_TYPE": 0, "CLASSIFICATION_TYPE": "U", "NORAD_CAT_ID": 28474, "ELEMENT_SET_NO": 999, "REV_AT_EPOCH": 15460, "BSTAR": 0, "MEAN_MOTION_DOT": -8.3e-07, "MEAN_MOTION_DDOT": 0}, "tle": {"line1": "1 28474U 04045A   25342.50176166 -.00000083  00000+0  00000+0 0  9996", "line2": "2 28474  55.2428 332.5762 0170681 309.0669 163.0919  2.00569196154600"}}, "geometry": {"type": "Point", "coordinates": [-139.92868358885448, -53.08368833147566]}}, {"type": "Feature", "properties": {"norad_id": 28874, "name": "GPS BIIRM-1 (PRN 17)", "group": "gps-ops", "lat": -28.470868344802554, "lon": 123.09925115574259, "alt_km": 20106.988418349993, "timestamp": "2025-12-09T04:51:47.751937+00:00", "meta": {"OBJECT_NAME": "GPS BIIRM-1 (PRN 17)", "OBJECT_ID": "2005-038A", "EPOCH": "2025-12-08T01:59:22.553088", "MEAN_MOTION": 2.00578599, "ECCENTRICITY": 0.01317899, "INCLINATION": 55.0361, "RA_OF_ASC_NODE": 280.8884, "ARG_OF_PERICENTER": 293.3737, "MEAN_ANOMALY": 195.059, "EPHEMERIS_TYPE": 0, "CLASSIFICATION_TYPE": "U", "NORAD_CAT_ID": 28874, "ELEMENT_SET_NO": 999, "REV_AT_EPOCH": 14800, "BSTAR": 0, "MEAN_MOTION_DOT": -4.3e-07, "MEAN_MOTION_DDOT": 0}, "tle": {"line1": "1 28874U 05038A   25342.08289992 -.00000043  00000+0  00000+0 0  9994", "line2": "2 28874  55.0361 280.8884 0131789 293.3737 195.0590  2.00578599148009"}}, "geometry": {"type": "Point", "coordinates": [123.09925115574259, -28.470868344802554]}}, {"type": "Feature", "properties": {"norad_id": 29486, "name": "GPS BIIRM-2 (PRN 31)", "group": "gps-ops", "lat": 44.00801903819085, "lon": -64.34310189462501, "alt_km": 20076.128026727107, "timestamp": "2025-12-09T04:51:47.751949+00:00", "meta": {"OBJECT_NAME": "GPS BIIRM-2 (PRN 31)", "OBJECT_ID": "2006-042A", "EPOCH": "2025-12-08T13:17:33.123840", "MEAN_MOTION": 2.00554246, "ECCENTRICITY": 0.0107364, "INCLINATION": 54.6936, "RA_OF_ASC_NODE": 158.9068, "ARG_OF_PERICENTER": 51.8598, "MEAN_ANOMALY": 320.1374, "EPHEMERIS_TYPE": 0, "CLASSIFICATION_TYPE": "U", "NORAD_CAT_ID": 29486, "ELEMENT_SET_NO": 999, "REV_AT_EPOCH": 14057, "BSTAR": 0, "MEAN_MOTION_DOT": 6e-07, "MEAN_MOTION_DDOT": 0}, "tle": {"line1": "1 29486U 06042A   25342.55385560  .00000060  00000+0  00000+0 0  9998", "line2": "2 29486  54.6936 158.9068 0107364  51.8598 320.1374  2.00554246140573"}}, "geometry": {"type": "Point", "coordinates": [-64.34310189462501, 44.00801903819085]}}, {"type": "Feature", "properties": {"norad_id": 29601, "name": "GPS BIIRM-3 (PRN 12)", "group": "gps-ops", "lat": 0.9647169614799744, "lon": 40.87156461393457, "alt_km": 20185.272802140335, "timestamp": "2025-12-09T04:51:47.751961+00:00", "meta": {"OBJECT_NAME": "GPS BIIRM-3 (PRN 12)", "OBJECT_ID": "2006-052A", "EPOCH": "2025-12-07T23:03:27.935136", "MEAN_MOTION": 2.00573134, "ECCENTRICITY": 0.00876554, "INCLINATION": 54.9714, "RA_OF_ASC_NODE": 221.5879, "ARG_OF_PERICENTER": 87.3887, "MEAN_ANOMALY": 273.7008, "EPHEMERIS_TYPE": 0, "CLASSIFICATION_TYPE": "U", "NORAD_CAT_ID": 29601, "ELEMENT_SET_NO": 999, "REV_AT_EPOCH": 13957, "BSTAR": 0, "MEAN_MOTION_DOT": 2.2e-07, "MEAN_MOTION_DDOT": 0}, "tle": {"line1": "1 29601U 06052A   25341.96073999  .00000022  00000+0  00000+0 0  9990", "line2": "2 29601  54.9714 221.5879 0087655  87.3887 273.7008  2.00573134139573"}}, "geometry": {"type": "Point", "coordinates": [40.87156461393457, 0.9647169614799744]}}, {"type": "Feature", "properties": {"norad_id": 32260, "name": "GPS BIIRM-4 (PRN 15)", "group": "gps-ops", "lat": -33.85476352181448, "lon": 58.69861754955881, "alt_km": 20454.42146429361, "timestamp": "2025-12-09T04:51:47.751973+00:00", "meta": {"OBJECT_NAME": "GPS BIIRM-4 (PRN 15)", "OBJECT_ID": "2007-047A", "EPOCH": "2025-12-07T18:25:34.370688", "MEAN_MOTION": 2.00564615, "ECCENTRICITY": 0.01643014, "INCLINATION": 53.9519, "RA_OF_ASC_NODE": 87.9639, "ARG_OF_PERICENTER": 85.1876, "MEAN_ANOMALY": 276.6737, "EPHEMERIS_TYPE": 0, "CLASSIFICATION_TYPE": "U", "NORAD_CAT_ID": 32260, "ELEMENT_SET_NO": 999, "REV_AT_EPOCH": 13297, "BSTAR": 0, "MEAN_MOTION_DOT": -1.8e-07, "MEAN_MOTION_DDOT": 0}, "tle": {"line1": "1 32260U 07047A   25341.76775892 -.00000018  00000+0  00000+0 0  9995", "line2": "2 32260  53.9519  87.9639 0164301  85.1876 276.6737  2.00564615132978"}}, "geometry": {"type": "Point", "coordinates": [58.69861754955881, -33.85476352181448]}}]}